ONEWEB-0114             
1 47262U 20100E   23059.45589593  .00000414  00000+0  11166-2 0  9996
2 47262  87.8937 229.9759 0002010 112.1160 248.0182 13.12442805106498
ONEWEB-0114             
1 47262U 20100E   23059.53213297  .00000441  00000+0  11910-2 0  9997
2 47262  87.8938 229.9607 0002014 112.0865 248.0477 13.12442858106503
ONEWEB-0114             
1 47262U 20100E   23059.91331806  .00000415  00000+0  11169-2 0  9993
2 47262  87.8938 229.8850 0002022 112.0822 248.0521 13.12443661106552
ONEWEB-0114             
1 47262U 20100E   23060.82816245  .00000361  00000+0  96906-3 0  9993
2 47262  87.8942 229.7033 0002069 111.3505 248.7844 13.12444145106676
ONEWEB-0114             
1 47262U 20100E   23060.90440034  .00000204  00000+0  53164-3 0  9996
2 47262  87.8942 229.6882 0002057 111.4583 248.6765 13.12443565106688
ONEWEB-0114             
1 47262U 20100E   23061.81924359  .00000151  00000+0  38480-3 0  9999
2 47262  87.8946 229.5065 0002049 111.0687 249.0661 13.12444428106809
ONEWEB-0114             
1 47262U 20100E   23062.20042832  .00000055  00000+0  11664-3 0  9998
2 47262  87.8948 229.4308 0002042 111.0128 249.1219 13.12444660106856
ONEWEB-0114             
1 47262U 20100E   23062.42913993  .00000007  00000+0 -16695-4 0  9995
2 47262  87.8948 229.3854 0002037 110.7426 249.3921 13.12443850106887
ONEWEB-0114             
1 47262U 20100E   23062.88656152 -.00000103  00000+0 -32111-3 0  9994
2 47262  87.8949 229.2946 0002046 110.7903 249.3445 13.12444298106944
